[{"OBJECT_NAME":"ONEWEB-0464","OBJECT_ID":"2022-012AF","EPOCH":"2026-03-09T22:06:05.794560","MEAN_MOTION":13.10363898,"ECCENTRICITY":0.00014911,"INCLINATION":87.8783,"RA_OF_ASC_NODE":56.0478,"ARG_OF_PERICENTER":93.1253,"MEAN_ANOMALY":267.0045,"EPHEMERIS_TYPE":0,"CLASSIFICATION_TYPE":"U","NORAD_CAT_ID":51651,"ELEMENT_SET_NO":999,"REV_AT_EPOCH":19632,"BSTAR":0.0033960505,"MEAN_MOTION_DOT":1.198e-5,"MEAN_MOTION_DDOT":0},{"OBJECT_NAME":"CZ-4B DEB","OBJECT_ID":"1999-057AQ","EPOCH":"2026-03-09T17:25:19.714368","MEAN_MOTION":13.40263341,"ECCENTRICITY":0.05179313,"INCLINATION":99.5438,"RA_OF_ASC_NODE":357.5897,"ARG_OF_PERICENTER":32.5951,"MEAN_ANOMALY":330.6064,"EPHEMERIS_TYPE":0,"CLASSIFICATION_TYPE":"U","NORAD_CAT_ID":26154,"ELEMENT_SET_NO":999,"REV_AT_EPOCH":26530,"BSTAR":0.0014270743,"MEAN_MOTION_DOT":1.679e-5,"MEAN_MOTION_DDOT":0}]
